[{"OBJECT_NAME":"PROTOMETHEE","OBJECT_ID":"2023-174BT","EPOCH":"2026-03-09T23:28:08.029344","MEAN_MOTION":15.30202663,"ECCENTRICITY":0.00088339,"INCLINATION":97.3826,"RA_OF_ASC_NODE":147.9552,"ARG_OF_PERICENTER":148.5993,"MEAN_ANOMALY":211.5776,"EPHEMERIS_TYPE":0,"CLASSIFICATION_TYPE":"U","NORAD_CAT_ID":58321,"ELEMENT_SET_NO":999,"REV_AT_EPOCH":12979,"BSTAR":0.00015715731,"MEAN_MOTION_DOT":4.52e-5,"MEAN_MOTION_DDOT":0},{"OBJECT_NAME":"STARLINK-32707","OBJECT_ID":"2024-254S","EPOCH":"2026-03-09T05:41:23.610048","MEAN_MOTION":15.27592539,"ECCENTRICITY":0.00023246,"INCLINATION":43.0003,"RA_OF_ASC_NODE":18.9358,"ARG_OF_PERICENTER":257.6288,"MEAN_ANOMALY":102.4304,"EPHEMERIS_TYPE":0,"CLASSIFICATION_TYPE":"U","NORAD_CAT_ID":62478,"ELEMENT_SET_NO":999,"REV_AT_EPOCH":6758,"BSTAR":0.00091105331,"MEAN_MOTION_DOT":0.00024903,"MEAN_MOTION_DDOT":0}]
